ONEWEB-0208             
1 48243U 21031AK  24147.87742316  .00000258  00000+0  66111-3 0  9996
2 48243  87.8963  79.1858 0002143  76.7206 283.4163 13.14501974149602
ONEWEB-0200             
1 48244U 21031AL  24148.06929830  .00003956  00000+0  10632-1 0  9990
2 48244  87.8965  79.1449 0002593  81.0070 279.1353 13.14502064149567
ONEWEB-0217             
1 48245U 21031AM  24148.08514108  .00001073  00000+0  28579-2 0  9999
2 48245  87.8973  79.1275 0002151  76.7232 283.4137 13.14512133149516
ONEWEB-0211             
1 48767U 21045A   24147.95285928 -.00000508  00000+0 -13827-2 0  9997
2 48767  87.9043  48.6758 0001699  63.6201 296.5104 13.15553305145644
ONEWEB-0223             
1 48768U 21045B   24147.97504555  .00000388  00000+0  99543-3 0  9994
2 48768  87.9055  48.6761 0002326  93.9910 266.1486 13.15543520145636
ONEWEB-0230             
1 48769U 21045C   24148.17466836  .00000215  00000+0  53808-3 0  9990
2 48769  87.9056  48.7084 0001806  83.9587 276.1749 13.15550011147030
ONEWEB-0237             
1 48770U 21045D   24147.78328935  .00000155  00000+0  37864-3 0  9992
2 48770  87.9060  48.7161 0002203  88.9930 271.1453 13.15550028145596
ONEWEB-0235             
1 48771U 21045E   24147.75794942  .00001533  00000+0  40390-2 0  9993
2 48771  87.9050  48.7328 0002364 101.8299 258.3097 13.15540662145585
ONEWEB-0242             
1 48772U 21045F   24148.13195343 -.00009505  00000+0 -25325-1 0  9996
2 48772  87.9050  48.6485 0002740  72.0996 288.0433 13.15503995146808
ONEWEB-0241             
1 48773U 21045G   24148.19526962  .00000042  00000+0  76476-4 0  9999
2 48773  87.9062  48.6795 0002334  81.0147 279.1248 13.15550475146724
ONEWEB-0243             
1 48774U 21045H   24147.77063037  .00000374  00000+0  96016-3 0  9991
2 48774  87.9072  48.7232 0002335  92.9847 267.1551 13.15541669145562
ONEWEB-0222             
1 48775U 21045J   24148.21032370 -.00000354  00000+0 -97535-3 0  9995
2 48775  87.9049  48.6412 0002197  82.5329 277.6051 13.15547795146784
ONEWEB-0244             
1 48776U 21045K   24148.16040796 -.00007073  00000+0 -18828-1 0  9992
2 48776  87.9049  48.6341 0001687  92.1967 267.9357 13.15582530147344
ONEWEB-0247             
1 48777U 21045L   24148.15724833  .00000100  00000+0  23135-3 0  9994
2 48777  87.9056  48.6739 0002578 103.0977 257.0441 13.15549623146795
ONEWEB-0245             
1 48778U 21045M   24147.77220074  .00000069  00000+0  15018-3 0  9995
2 48778  87.9050  48.7415 0002185  78.8177 281.3198 13.15549826145587
ONEWEB-0229             
1 48779U 21045N   24147.76745361  .00000221  00000+0  55382-3 0  9994
2 48779  87.9066  48.7353 0001651  80.7506 279.3811 13.15545502145611
ONEWEB-0228             
1 48780U 21045P   24148.08674297  .00004435  00000+0  11745-1 0  9995
2 48780  87.9049  48.6481 0002073  84.8615 275.2752 13.15527682146709
ONEWEB-0232             
1 48781U 21045Q   24147.77537168  .00000090  00000+0  20562-3 0  9998
2 48781  87.9045  48.7325 0001930  84.0814 276.0537 13.15552029145856
ONEWEB-0231             
1 48782U 21045R   24148.20953322 -.00004928  00000+0 -13127-1 0  9995
2 48782  87.9061  48.6724 0002421  78.5668 281.5734 13.15572006146744
ONEWEB-0234             
1 48783U 21045S   24148.22934284  .00001389  00000+0  36543-2 0  9998
2 48783  87.9053  48.6300 0002721  52.4912 307.6465 13.15540801146875
ONEWEB-0238             
1 48784U 21045T   24148.18337103 -.00011262  00000+0 -29961-1 0  9999
2 48784  87.9052  48.6568 0001260  53.4079 306.7167 13.15605631146763
ONEWEB-0240             
1 48785U 21045U   24147.96472316  .00000043  00000+0  80010-4 0  9999
2 48785  87.9053  48.6676 0002342  81.9832 278.1564 13.15550778145639
ONEWEB-0246             
1 48786U 21045V   24147.95917982  .00000125  00000+0  29904-3 0  9997
2 48786  87.9063  48.6744 0001734  81.5272 278.6055 13.15548516145508
ONEWEB-0210             
1 48787U 21045W   24147.78171481  .00000109  00000+0  25522-3 0  9999
2 48787  87.9051  48.7136 0002255 104.5647 255.5734 13.15547303145526
ONEWEB-0214             
1 48788U 21045X   24147.79121341  .00000156  00000+0  38001-3 0  9999
2 48788  87.9055  48.7005 0001837 101.0308 259.1028 13.15549796145497
ONEWEB-0221             
1 48789U 21045Y   24147.79756013  .00000213  00000+0  53267-3 0  9995
2 48789  87.9057  48.7166 0002157  84.3377 275.7999 13.15546999145586
ONEWEB-0213             
1 48790U 21045Z   24148.16676266 -.00001427  00000+0 -38250-2 0  9994
2 48790  87.9054  48.6589 0002226  63.9295 296.2064 13.15533925146826
ONEWEB-0212             
1 48791U 21045AA  24148.14376470  .00000939  00000+0  24586-2 0  9999
2 48791  87.9059  48.6419 0001445  62.9277 297.2000 13.15555068146828
ONEWEB-0227             
1 48792U 21045AB  24148.14297860 -.00000093  00000+0 -28057-3 0  9996
2 48792  87.9054  48.6598 0002009  81.5174 278.6184 13.15550048146764
ONEWEB-0226             
1 48793U 21045AC  24147.75635610 -.00000330  00000+0 -91183-3 0  9996
2 48793  87.9052  48.7435 0002184  94.9997 265.1383 13.15547906145556
ONEWEB-0224             
1 48794U 21045AD  24147.71991006  .00000616  00000+0  16009-2 0  9995
2 48794  87.9056  48.7719 0002915  74.0579 286.0872 13.15549829145475
ONEWEB-0233             
1 48795U 21045AE  24147.71595077  .00000202  00000+0  50186-3 0  9990
2 48795  87.9057  48.7830 0001878  85.6442 274.4903 13.15549738145492
ONEWEB-0190             
1 48796U 21045AF  24147.78805985  .00000221  00000+0  55319-3 0  9994
2 48796  87.9058  48.7320 0002686  97.4502 262.6933 13.15548499145578
ONEWEB-0236             
1 48797U 21045AG  24147.95760198  .00000167  00000+0  40848-3 0  9990
2 48797  87.9063  48.6912 0002055  79.6715 280.4647 13.15548328145480
ONEWEB-0248             
1 48798U 21045AH  24148.19844725 -.00001572  00000+0 -42093-2 0  9993
2 48798  87.9053  48.6356 0002574  72.8433 287.2979 13.15556117146793
ONEWEB-0225             
1 48799U 21045AJ  24148.22063101 -.00000189  00000+0 -53545-3 0  9997
2 48799  87.9059  48.6424 0002605  88.1226 272.0202 13.15547999146824
ONEWEB-0215             
1 48800U 21045AK  24148.19052004  .00000090  00000+0  20505-3 0  9995
2 48800  87.9052  48.6238 0002764  88.4653 271.6793 13.15547443146673
ONEWEB-0216             
1 48801U 21045AL  24148.20004277  .00013458  00000+0  35694-1 0  9992
2 48801  87.9052  48.6624 0002297  94.6284 265.5109 13.15485193146680
ONEWEB-0239             
1 48802U 21045AM  24148.20480014  .00007231  00000+0  19169-1 0  9991
2 48802  87.9062  48.6353 0003146  86.1271 274.0218 13.15512533146749
ONEWEB-0249             
1 48967U 21060A   24148.20214010 -.00000806  00000+0 -21428-2 0  9996
2 48967  87.9130  18.2738 0001840  85.5265 274.6076 13.16582047142081
ONEWEB-0250             
1 48968U 21060B   24147.67486868  .00000008  00000+0 -13814-4 0  9994
2 48968  87.9125  18.3596 0002161  83.6016 276.5360 13.16598390140701
ONEWEB-0252             
1 48970U 21060D   24147.92981044  .00001297  00000+0  33596-2 0  9998
2 48970  87.9126  18.3198 0002425  84.0247 276.1160 13.16589205140807
ONEWEB-0253             
1 48971U 21060E   24147.91871784  .00002266  00000+0  58914-2 0  9995
2 48971  87.9128  18.3324 0001864  78.5928 281.5413 13.16592994140733
ONEWEB-0254             
1 48972U 21060F   24147.92823512  .00003852  00000+0  10042-1 0  9994
2 48972  87.9127  18.3089 0001875  86.0163 274.1182 13.16575875140738
ONEWEB-0255             
1 48973U 21060G   24148.19422376 -.00000012  00000+0 -66095-4 0  9997
2 48973  87.9125  18.2908 0001874  83.3528 276.7816 13.16596271142131
ONEWEB-0256             
1 48974U 21060H   24148.14433715 -.00000881  00000+0 -23397-2 0  9992
2 48974  87.9122  18.3050 0001507  97.5500 262.5802 13.16593351142097
ONEWEB-0257             
1 48975U 21060J   24148.17679721  .00000089  00000+0  19968-3 0  9993
2 48975  87.9127  18.2681 0001778  88.3884 271.7451 13.16596280142057
ONEWEB-0258             
1 48976U 21060K   24147.87439430  .00002528  00000+0  65777-2 0  9999
2 48976  87.9146  18.3595 0002152  78.4082 281.7291 13.16584063140733
ONEWEB-0259             
1 48977U 21060L   24147.86805919  .00000063  00000+0  13032-3 0  9998
2 48977  87.9128  18.3437 0002061  77.7208 282.4153 13.16597193140766
ONEWEB-0260             
1 48978U 21060M   24147.93533789 -.00002565  00000+0 -67448-2 0  9990
2 48978  87.9129  18.3598 0001058  70.6875 289.4370 13.16602722140755
ONEWEB-0261             
1 48979U 21060N   24147.90447158  .00000630  00000+0  16141-2 0  9995
2 48979  87.9129  18.3574 0002286  97.6065 262.5326 13.16599588140808
ONEWEB-0262             
1 48980U 21060P   24148.18946801  .00000011  00000+0 -41488-5 0  9996
2 48980  87.9127  18.2656 0002347  83.1673 276.9725 13.16591863142106
ONEWEB-0263             
1 48981U 21060Q   24148.14514669  .00006116  00000+0  15962-1 0  9991
2 48981  87.9127  18.2900 0001771 101.0631 259.0699 13.16565535142067
ONEWEB-0264             
1 48982U 21060R   24148.18233759  .00000101  00000+0  23101-3 0  9998
2 48982  87.9128  18.2943 0001825  87.7340 272.4000 13.16595998142064
ONEWEB-0266             
1 48984U 21060T   24147.67174278 -.00000113  00000+0 -32973-3 0  9995
2 48984  87.9126  18.3737 0001913  72.7920 287.3421 13.16594004140698
ONEWEB-0267             
1 48985U 21060U   24147.91081039 -.00000119  00000+0 -34550-3 0  9994
2 48985  87.9134  18.3289 0002148  96.1965 263.9410 13.16591246140738
ONEWEB-0268             
1 48986U 21060V   24148.18313245  .00000037  00000+0  62374-4 0  9995
2 48986  87.9126  18.2798 0001813  89.4114 270.7225 13.16592650142320
ONEWEB-0269             
1 48987U 21060W   24147.93614610  .00003241  00000+0  84423-2 0  9995
2 48987  87.9133  18.3560 0001237  42.8370 317.2857 13.16577549140779
ONEWEB-0270             
1 48988U 21060X   24147.87756565 -.00000036  00000+0 -12657-3 0  9997
2 48988  87.9129  18.3497 0002344  87.8260 272.3139 13.16595348140806
